[{"OBJECT_NAME":"FLOCK 4Q-13","OBJECT_ID":"2023-174CA","EPOCH":"2026-04-26T18:00:38.779776","MEAN_MOTION":15.49442728,"ECCENTRICITY":0.00052593,"INCLINATION":97.3995,"RA_OF_ASC_NODE":206.1534,"ARG_OF_PERICENTER":345.8224,"MEAN_ANOMALY":14.2878,"EPHEMERIS_TYPE":0,"CLASSIFICATION_TYPE":"U","NORAD_CAT_ID":58328,"ELEMENT_SET_NO":999,"REV_AT_EPOCH":13770,"BSTAR":0.00049998441,"MEAN_MOTION_DOT":0.00027451,"MEAN_MOTION_DDOT":0},{"OBJECT_NAME":"FLOCK 4BE-18","OBJECT_ID":"2024-149N","EPOCH":"2026-04-26T18:46:22.215648","MEAN_MOTION":15.4018489,"ECCENTRICITY":0.00050228,"INCLINATION":97.3729,"RA_OF_ASC_NODE":200.041,"ARG_OF_PERICENTER":92.322,"MEAN_ANOMALY":267.8601,"EPHEMERIS_TYPE":0,"CLASSIFICATION_TYPE":"U","NORAD_CAT_ID":60480,"ELEMENT_SET_NO":999,"REV_AT_EPOCH":9439,"BSTAR":0.00058053977,"MEAN_MOTION_DOT":0.0002327,"MEAN_MOTION_DDOT":0},{"OBJECT_NAME":"FLOCK 4BE-7","OBJECT_ID":"2024-149P","EPOCH":"2026-04-26T19:05:39.079680","MEAN_MOTION":15.38184915,"ECCENTRICITY":0.00042465,"INCLINATION":97.3763,"RA_OF_ASC_NODE":199.5119,"ARG_OF_PERICENTER":98.3769,"MEAN_ANOMALY":261.7958,"EPHEMERIS_TYPE":0,"CLASSIFICATION_TYPE":"U","NORAD_CAT_ID":60481,"ELEMENT_SET_NO":999,"REV_AT_EPOCH":9434,"BSTAR":0.00059043988,"MEAN_MOTION_DOT":0.00022164,"MEAN_MOTION_DDOT":0},{"OBJECT_NAME":"FLOCK 4BE-26","OBJECT_ID":"2024-149S","EPOCH":"2026-04-26T19:05:05.783712","MEAN_MOTION":15.55390374,"ECCENTRICITY":0.00027716,"INCLINATION":97.3687,"RA_OF_ASC_NODE":200.7277,"ARG_OF_PERICENTER":142.9939,"MEAN_ANOMALY":217.1507,"EPHEMERIS_TYPE":0,"CLASSIFICATION_TYPE":"U","NORAD_CAT_ID":60484,"ELEMENT_SET_NO":999,"REV_AT_EPOCH":9444,"BSTAR":0.0025480068,"MEAN_MOTION_DOT":0.0017679,"MEAN_MOTION_DDOT":0},{"OBJECT_NAME":"FLOCK 4BE-36","OBJECT_ID":"2024-149U","EPOCH":"2026-04-26T18:47:52.593504","MEAN_MOTION":15.41088388,"ECCENTRICITY":0.00051345,"INCLINATION":97.3743,"RA_OF_ASC_NODE":200.6617,"ARG_OF_PERICENTER":100.34,"MEAN_ANOMALY":259.8425,"EPHEMERIS_TYPE":0,"CLASSIFICATION_TYPE":"U","NORAD_CAT_ID":60486,"ELEMENT_SET_NO":999,"REV_AT_EPOCH":9443,"BSTAR":0.0005256206,"MEAN_MOTION_DOT":0.00021694,"MEAN_MOTION_DDOT":0},{"OBJECT_NAME":"FLOCK 4BE-25","OBJECT_ID":"2024-149V","EPOCH":"2026-04-26T18:12:44.270208","MEAN_MOTION":15.37480422,"ECCENTRICITY":0.00036994,"INCLINATION":97.3799,"RA_OF_ASC_NODE":199.6145,"ARG_OF_PERICENTER":97.6874,"MEAN_ANOMALY":262.4791,"EPHEMERIS_TYPE":0,"CLASSIFICATION_TYPE":"U","NORAD_CAT_ID":60487,"ELEMENT_SET_NO":999,"REV_AT_EPOCH":9433,"BSTAR":0.00046507066,"MEAN_MOTION_DOT":0.00017034,"MEAN_MOTION_DDOT":0},{"OBJECT_NAME":"FLOCK 4BE-31","OBJECT_ID":"2024-149W","EPOCH":"2026-04-26T18:55:53.965920","MEAN_MOTION":15.42123519,"ECCENTRICITY":0.00040491,"INCLINATION":97.38,"RA_OF_ASC_NODE":201.3927,"ARG_OF_PERICENTER":104.0292,"MEAN_ANOMALY":256.1406,"EPHEMERIS_TYPE":0,"CLASSIFICATION_TYPE":"U","NORAD_CAT_ID":60488,"ELEMENT_SET_NO":999,"REV_AT_EPOCH":9445,"BSTAR":0.00059308034,"MEAN_MOTION_DOT":0.00025354,"MEAN_MOTION_DDOT":0},{"OBJECT_NAME":"FLOCK 4BE-20","OBJECT_ID":"2024-149X","EPOCH":"2026-04-26T16:42:31.218624","MEAN_MOTION":15.36692667,"ECCENTRICITY":0.00052554,"INCLINATION":97.3702,"RA_OF_ASC_NODE":198.5615,"ARG_OF_PERICENTER":98.8363,"MEAN_ANOMALY":261.3476,"EPHEMERIS_TYPE":0,"CLASSIFICATION_TYPE":"U","NORAD_CAT_ID":60489,"ELEMENT_SET_NO":999,"REV_AT_EPOCH":9430,"BSTAR":0.00050456254,"MEAN_MOTION_DOT":0.0001803,"MEAN_MOTION_DDOT":0},{"OBJECT_NAME":"FLOCK 4BE-23","OBJECT_ID":"2024-149Y","EPOCH":"2026-04-26T17:44:34.638720","MEAN_MOTION":15.36325077,"ECCENTRICITY":0.00050948,"INCLINATION":97.3782,"RA_OF_ASC_NODE":198.9521,"ARG_OF_PERICENTER":104.8925,"MEAN_ANOMALY":255.2883,"EPHEMERIS_TYPE":0,"CLASSIFICATION_TYPE":"U","NORAD_CAT_ID":60490,"ELEMENT_SET_NO":999,"REV_AT_EPOCH":9429,"BSTAR":0.00042506222,"MEAN_MOTION_DOT":0.00014991,"MEAN_MOTION_DDOT":0},{"OBJECT_NAME":"FLOCK 4BE-15","OBJECT_ID":"2024-149Z","EPOCH":"2026-04-26T17:06:11.911104","MEAN_MOTION":15.48882224,"ECCENTRICITY":0.00055123,"INCLINATION":97.3713,"RA_OF_ASC_NODE":200.594,"ARG_OF_PERICENTER":172.3391,"MEAN_ANOMALY":187.7945,"EPHEMERIS_TYPE":0,"CLASSIFICATION_TYPE":"U","NORAD_CAT_ID":60491,"ELEMENT_SET_NO":999,"REV_AT_EPOCH":9443,"BSTAR":0.0022945195,"MEAN_MOTION_DOT":0.00125415,"MEAN_MOTION_DDOT":0},{"OBJECT_NAME":"FLOCK 4BE-17","OBJECT_ID":"2024-149AA","EPOCH":"2026-04-26T18:58:33.030048","MEAN_MOTION":15.38265074,"ECCENTRICITY":0.00044503,"INCLINATION":97.3777,"RA_OF_ASC_NODE":199.8147,"ARG_OF_PERICENTER":97.2706,"MEAN_ANOMALY":262.9045,"EPHEMERIS_TYPE":0,"CLASSIFICATION_TYPE":"U","NORAD_CAT_ID":60492,"ELEMENT_SET_NO":999,"REV_AT_EPOCH":9435,"BSTAR":0.00051865793,"MEAN_MOTION_DOT":0.00019504,"MEAN_MOTION_DDOT":0},{"OBJECT_NAME":"FLOCK 4BE-22","OBJECT_ID":"2024-149AC","EPOCH":"2026-04-26T18:03:20.931840","MEAN_MOTION":15.39581529,"ECCENTRICITY":0.00050382,"INCLINATION":97.3734,"RA_OF_ASC_NODE":199.8901,"ARG_OF_PERICENTER":102.3787,"MEAN_ANOMALY":257.8023,"EPHEMERIS_TYPE":0,"CLASSIFICATION_TYPE":"U","NORAD_CAT_ID":60494,"ELEMENT_SET_NO":999,"REV_AT_EPOCH":9438,"BSTAR":0.00052313637,"MEAN_MOTION_DOT":0.00020542,"MEAN_MOTION_DDOT":0},{"OBJECT_NAME":"FLOCK 4BE-34","OBJECT_ID":"2024-149AD","EPOCH":"2026-04-26T18:29:29.446080","MEAN_MOTION":15.39652146,"ECCENTRICITY":0.0005367,"INCLINATION":97.3782,"RA_OF_ASC_NODE":200.6959,"ARG_OF_PERICENTER":109.4266,"MEAN_ANOMALY":250.756,"EPHEMERIS_TYPE":0,"CLASSIFICATION_TYPE":"U","NORAD_CAT_ID":60495,"ELEMENT_SET_NO":999,"REV_AT_EPOCH":9441,"BSTAR":0.0005088756,"MEAN_MOTION_DOT":0.00020026,"MEAN_MOTION_DDOT":0},{"OBJECT_NAME":"FLOCK 4BE-32","OBJECT_ID":"2024-149AF","EPOCH":"2026-04-26T18:25:37.098336","MEAN_MOTION":15.40397012,"ECCENTRICITY":0.00052791,"INCLINATION":97.3721,"RA_OF_ASC_NODE":200.2106,"ARG_OF_PERICENTER":107.2533,"MEAN_ANOMALY":252.9291,"EPHEMERIS_TYPE":0,"CLASSIFICATION_TYPE":"U","NORAD_CAT_ID":60497,"ELEMENT_SET_NO":999,"REV_AT_EPOCH":9441,"BSTAR":0.00053734581,"MEAN_MOTION_DOT":0.0002168,"MEAN_MOTION_DDOT":0},{"OBJECT_NAME":"FLOCK 4BE-30","OBJECT_ID":"2024-149AH","EPOCH":"2026-04-26T12:05:03.865344","MEAN_MOTION":15.4582023,"ECCENTRICITY":0.00035989,"INCLINATION":97.379,"RA_OF_ASC_NODE":200.7459,"ARG_OF_PERICENTER":167.2904,"MEAN_ANOMALY":192.8437,"EPHEMERIS_TYPE":0,"CLASSIFICATION_TYPE":"U","NORAD_CAT_ID":60499,"ELEMENT_SET_NO":999,"REV_AT_EPOCH":9376,"BSTAR":0.0022420149,"MEAN_MOTION_DOT":0.00110014,"MEAN_MOTION_DDOT":0},{"OBJECT_NAME":"FLOCK 4BE-11","OBJECT_ID":"2024-149AK","EPOCH":"2026-04-26T18:58:24.222432","MEAN_MOTION":15.4124768,"ECCENTRICITY":0.00053572,"INCLINATION":97.3701,"RA_OF_ASC_NODE":200.412,"ARG_OF_PERICENTER":107.0111,"MEAN_ANOMALY":253.1723,"EPHEMERIS_TYPE":0,"CLASSIFICATION_TYPE":"U","NORAD_CAT_ID":60501,"ELEMENT_SET_NO":999,"REV_AT_EPOCH":9443,"BSTAR":0.00052328553,"MEAN_MOTION_DOT":0.00021713,"MEAN_MOTION_DDOT":0}]
