FLOCK 4Q-13             
1 58328U 23174CA  26116.75044884  .00027451  00000+0  49998-3 0  9999
2 58328  97.3995 206.1534 0005259 345.8224  14.2878 15.49442728137704
FLOCK 4BE-18            
1 60480U 24149N   26116.78220157  .00023270  00000+0  58054-3 0  9994
2 60480  97.3729 200.0410 0005022  92.3220 267.8601 15.40184890 94396
FLOCK 4BE-7             
1 60481U 24149P   26116.79559120  .00022164  00000+0  59044-3 0  9992
2 60481  97.3763 199.5119 0004246  98.3769 261.7958 15.38184915 94342
FLOCK 4BE-26            
1 60484U 24149S   26116.79520583  .00176790  00000+0  25480-2 0  9997
2 60484  97.3687 200.7277 0002771 142.9939 217.1507 15.55390374 94449
FLOCK 4BE-36            
1 60486U 24149U   26116.78324761  .00021694  00000+0  52562-3 0  9992
2 60486  97.3743 200.6617 0005134 100.3400 259.8425 15.41088388 94433
FLOCK 4BE-25            
1 60487U 24149V   26116.75884572  .00017034  00000+0  46507-3 0  9996
2 60487  97.3799 199.6145 0003699  97.6874 262.4791 15.37480422 94330
FLOCK 4BE-31            
1 60488U 24149W   26116.78881905  .00025354  00000+0  59308-3 0  9994
2 60488  97.3800 201.3927 0004049 104.0292 256.1406 15.42123519 94453
FLOCK 4BE-20            
1 60489U 24149X   26116.69619466  .00018030  00000+0  50456-3 0  9994
2 60489  97.3702 198.5615 0005255  98.8363 261.3476 15.36692667 94302
FLOCK 4BE-23            
1 60490U 24149Y   26116.73928980  .00014991  00000+0  42506-3 0  9994
2 60490  97.3782 198.9521 0005094 104.8925 255.2883 15.36325077 94295
FLOCK 4BE-15            
1 60491U 24149Z   26116.71263786  .00125415  00000+0  22945-2 0  9997
2 60491  97.3713 200.5940 0005512 172.3391 187.7945 15.48882224 94436
FLOCK 4BE-17            
1 60492U 24149AA  26116.79066007  .00019504  00000+0  51866-3 0  9999
2 60492  97.3777 199.8147 0004450  97.2706 262.9045 15.38265074 94356
FLOCK 4BE-22            
1 60494U 24149AC  26116.75232560  .00020542  00000+0  52314-3 0  9999
2 60494  97.3734 199.8901 0005038 102.3787 257.8023 15.39581529 94388
FLOCK 4BE-34            
1 60495U 24149AD  26116.77047970  .00020026  00000+0  50888-3 0  9992
2 60495  97.3782 200.6959 0005367 109.4266 250.7560 15.39652146 94417
FLOCK 4BE-32            
1 60497U 24149AF  26116.76779049  .00021680  00000+0  53735-3 0  9993
2 60497  97.3721 200.2106 0005279 107.2533 252.9291 15.40397012 94412
FLOCK 4BE-30            
1 60499U 24149AH  26116.50351696  .00110014  00000+0  22420-2 0  9997
2 60499  97.3790 200.7459 0003598 167.2904 192.8437 15.45820230 93765
FLOCK 4BE-11            
1 60501U 24149AK  26116.79055813  .00021713  00000+0  52329-3 0  9993
2 60501  97.3701 200.4120 0005357 107.0111 253.1723 15.41247680 94432
